{
    "links": {
        "self": "http://www.neowsapp.com/rest/v1/neo/3842689?api_key=iIulBulltgU6a56xZRHN4H3l9WmuAYTsLGpBGhQ2"
    },
    "id": "3842689",
    "neo_reference_id": "3842689",
    "name": "(2019 LR)",
    "designation": "2019 LR",
    "nasa_jpl_url": "http://ssd.jpl.nasa.gov/sbdb.cgi?sstr=3842689",
    "absolute_magnitude_h": 24.9,
    "estimated_diameter": {
        "kilometers": {
            "estimated_diameter_min": 0.0278326768,
            "estimated_diameter_max": 0.0622357573
        },
        "meters": {
            "estimated_diameter_min": 27.8326768072,
            "estimated_diameter_max": 62.2357573367
        },
        "miles": {
            "estimated_diameter_min": 0.0172944182,
            "estimated_diameter_max": 0.0386714948
        },
        "feet": {
            "estimated_diameter_min": 91.3145593761,
            "estimated_diameter_max": 204.1855621004
        }
    },
    "is_potentially_hazardous_asteroid": false,
    "close_approach_data": [
        {
            "close_approach_date": "2019-06-16",
            "close_approach_date_full": "2019-Jun-16 14:29",
            "epoch_date_close_approach": 1560695340000,
            "relative_velocity": {
                "kilometers_per_second": "15.0263065745",
                "kilometers_per_hour": "54094.7036682432",
                "miles_per_hour": "33612.3451765259"
            },
            "miss_distance": {
                "astronomical": "0.0468749088",
                "lunar": "18.2343395232",
                "kilometers": "7012386.512924256",
                "miles": "4357294.9286804928"
            },
            "orbiting_body": "Earth"
        },
        {
            "close_approach_date": "2086-10-27",
            "close_approach_date_full": "2086-Oct-27 05:14",
            "epoch_date_close_approach": 3686534040000,
            "relative_velocity": {
                "kilometers_per_second": "13.6383720997",
                "kilometers_per_hour": "49098.1395589445",
                "miles_per_hour": "30507.6745498341"
            },
            "miss_distance": {
                "astronomical": "0.0918186607",
                "lunar": "35.7174590123",
                "kilometers": "13735876.066972709",
                "miles": "8535077.6112090242"
            },
            "orbiting_body": "Earth"
        }
    ],
    "orbital_data": {
        "orbit_id": "1",
        "orbit_determination_date": "2019-06-03 09:42:04",
        "first_observation_date": "2019-05-30",
        "last_observation_date": "2019-06-03",
        "data_arc_in_days": 4,
        "observations_used": 16,
        "orbit_uncertainty": "9",
        "minimum_orbit_intersection": ".0340276",
        "jupiter_tisserand_invariant": "3.663",
        "epoch_osculation": "2458636.5",
        "eccentricity": ".6013577294677888",
        "semi_major_axis": "1.930737422618382",
        "inclination": "6.188647031462331",
        "ascending_node_longitude": "244.7528075774678",
        "orbital_period": "979.9033637065293",
        "perihelion_distance": ".7696735499541012",
        "perihelion_argument": "87.71463770878884",
        "aphelion_distance": "3.091801295282662",
        "perihelion_time": "2458696.813716513149",
        "mean_anomaly": "337.8417558823317",
        "mean_motion": ".3673831658647273",
        "equinox": "J2000",
        "orbit_class": {
            "orbit_class_type": "APO",
            "orbit_class_description": "Near-Earth asteroid orbits which cross the Earth’s orbit similar to that of 1862 Apollo",
            "orbit_class_range": "a (semi-major axis) > 1.0 AU; q (perihelion) < 1.017 AU"
        }
    },
    "is_sentry_object": false
}